SAUDISAT 1C (SO-50)     
1 27607U 02058C   26192.22824339  .00000425  00000+0  68086-4 0  9992
2 27607  64.5517  54.6005 0074646 258.0129 101.2603 14.83094010268027
SAUDISAT 2              
1 28371U 04025F   26192.48225015  .00000120  00000+0  37863-4 0  9992
2 28371  98.5518 193.0929 0023884 219.8550 140.0894 14.56697068169281
SAUDISAT 3              
1 31118U 07012B   26192.33136839  .00000122  00000+0  27845-4 0  9994
2 31118  98.1466 142.7494 0015347 146.3198 213.8987 14.71439083 31296
PISAT                   
1 41784U 16059B   26192.52907075  .00000502  00000+0  93078-4 0  9997
2 41784  97.8188 191.9369 0030290 126.0385 234.3635 14.69025621523310
FLYING LAPTOP           
1 42831U 17042G   26192.51429750  .00002255  00000+0  17907-3 0  9995
2 42831  97.4788 347.1294 0019851  44.1451 316.1353 15.01297837490105
SALSAT                  
1 46495U 20068K   26192.47522477  .00004471  00000+0  15610-3 0  9993
2 46495  97.8856 197.0247 0008815 206.7694 153.3092 15.30138870319078
