OBJECT_NAME,OBJECT_ID,EPOCH,MEAN_MOTION,ECCENTRICITY,INCLINATION,RA_OF_ASC_NODE,ARG_OF_PERICENTER,MEAN_ANOMALY,EPHEMERIS_TYPE,CLASSIFICATION_TYPE,NORAD_CAT_ID,ELEMENT_SET_NO,REV_AT_EPOCH,BSTAR,MEAN_MOTION_DOT,MEAN_MOTION_DDOT
SAUDISAT 1C (SO-50),2002-058C,2026-07-11T05:28:40.228896,14.83094010,.0074646,64.5517,54.6005,258.0129,101.2603,0,U,27607,999,26802,.68086E-4,.425E-5,0
SAUDISAT 2,2004-025F,2026-07-11T11:34:26.412960,14.56697068,.0023884,98.5518,193.0929,219.8550,140.0894,0,U,28371,999,16928,.37863E-4,.12E-5,0
SAUDISAT 3,2007-012B,2026-07-11T07:57:10.228896,14.71439083,.0015347,98.1466,142.7494,146.3198,213.8987,0,U,31118,999,3129,.27845E-4,.122E-5,0
PISAT,2016-059B,2026-07-11T12:41:51.712800,14.69025621,.003029,97.8188,191.9369,126.0385,234.3635,0,U,41784,999,52331,.93078E-4,.502E-5,0
FLYING LAPTOP,2017-042G,2026-07-11T12:20:35.304000,15.01297837,.0019851,97.4788,347.1294,44.1451,316.1353,0,U,42831,999,49010,.17907E-3,.2255E-4,0
SALSAT,2020-068K,2026-07-11T11:24:19.420128,15.30138870,.0008815,97.8856,197.0247,206.7694,153.3092,0,U,46495,999,31907,.1561E-3,.4471E-4,0
